NORAD_CAT_ID,OBJECT_NAME,OBJECT_TYPE,EPOCH,MEAN_MOTION,ECCENTRICITY,INCLINATION,RA_OF_ASC_NODE,ARG_OF_PERICENTER,MEAN_ANOMALY,BSTAR,MEAN_MOTION_DOT,MEAN_MOTION_DDOT,TLE_LINE0,TLE_LINE1,TLE_LINE2,SEMIMAJOR_AXIS,PERIOD,APOGEE,PERIGEE,DECAYED
52477.0,STARLINK-3860,PAYLOAD,2023-09-22 01:20:24,15.08853628,0.0001119,53.2163,127.7347,101.8666,258.2451,0.0010819,0.00016979,0.0,0 STARLINK-3860,1 52477U 22049AC  23265.05583814  .00016979  00000-0  10819-2 0  9997,2 52477  53.2163 127.7347 0001119 101.8666 258.2451 15.08853628 76734,6917.839,95.437,540.478,538.93,0.0
52477.0,STARLINK-3860,PAYLOAD,2023-09-22 22:00:24,15.08855834,0.0001124,53.2159,123.8694,106.4461,253.6654,0.0005548,8.557e-05,0.0,0 STARLINK-3860,1 52477U 22049AC  23265.91695399  .00008557  00000-0  55480-3 0  9991,2 52477  53.2159 123.8694 0001124 106.4461 253.6654 15.08855834 77940,6917.832,95.437,540.475,538.919,0.0
52477.0,STARLINK-3860,PAYLOAD,2023-09-23 01:11:10,15.08859245,0.0001123,53.2158,123.2746,108.0452,252.0662,0.00063688,9.868e-05,0.0,0 STARLINK-3860,1 52477U 22049AC  23266.04943228  .00009868  00000-0  63688-3 0  9998,2 52477  53.2158 123.2746 0001123 108.0452 252.0662 15.08859245 76882,6917.822,95.436,540.463,538.91,0.0
52477.0,STARLINK-3860,PAYLOAD,2023-09-23 18:40:25,15.08839775,0.000151,53.2157,120.0008,126.3757,233.7375,0.00040293,6.13e-05,0.0,0 STARLINK-3860,1 52477U 22049AC  23266.77807389  .00006130  00000-0  40293-3 0  9991,2 52477  53.2157 120.0008 0001510 126.3757 233.7375 15.08839775 76993,6917.881,95.438,540.791,538.701,0.0
52477.0,STARLINK-3860,PAYLOAD,2023-09-24 13:45:03,15.08842516,0.0001307,53.2164,116.4394,77.6693,282.4445,0.00013221,1.817e-05,0.0,0 STARLINK-3860,1 52477U 22049AC  23267.57295715  .00001817  00000-0  13221-3 0  9992,2 52477  53.2164 116.4394 0001307  77.6693 282.4445 15.08842516 78199,6917.873,95.437,540.642,538.834,0.0
52477.0,STARLINK-3860,PAYLOAD,2023-09-24 20:06:36,15.08839548,0.0001249,53.2165,115.248,82.9665,277.1469,4.0121e-05,3.51e-06,0.0,0 STARLINK-3860,1 52477U 22049AC  23267.83791847  .00000351  00000-0  40121-4 0  9990,2 52477  53.2165 115.2480 0001249  82.9665 277.1469 15.08839548 77159,6917.882,95.438,540.611,538.883,0.0
52477.0,STARLINK-3860,PAYLOAD,2023-09-24 21:41:59,15.08840929,0.0001264,53.2165,114.9503,79.3992,280.7143,7.8921e-05,9.68e-06,0.0,0 STARLINK-3860,1 52477U 22049AC  23267.90415817  .00000968  00000-0  78921-4 0  9991,2 52477  53.2165 114.9503 0001264  79.3992 280.7143 15.08840929 78246,6917.878,95.437,540.617,538.868,0.0
52477.0,STARLINK-3860,PAYLOAD,2023-09-25 19:57:23,15.08848316,0.0001458,53.2168,110.7881,68.6552,291.4595,0.00026023,3.857e-05,0.0,0 STARLINK-3860,1 52477U 22049AC  23268.83151656  .00003857  00000-0  26023-3 0  9997,2 52477  53.2168 110.7881 0001458  68.6552 291.4595 15.08848316 78383,6917.855,95.437,540.729,538.711,0.0
52477.0,STARLINK-3860,PAYLOAD,2023-09-25 23:08:09,15.08850941,0.0001415,53.2165,110.1919,70.3497,289.7648,0.00030134,4.513e-05,0.0,0 STARLINK-3860,1 52477U 22049AC  23268.96399483  .00004513  00000-0  30134-3 0  9991,2 52477  53.2165 110.1919 0001415  70.3497 289.7648 15.08850941 77326,6917.847,95.437,540.691,538.733,0.0
52477.0,STARLINK-3860,PAYLOAD,2023-09-26 13:26:37,15.08837806,0.0001298,53.2158,107.5126,90.4468,269.6672,3.3473e-05,2.45e-06,0.0,0 STARLINK-3860,1 52477U 22049AC  23269.56016012  .00000245  00000-0  33473-4 0  9990,2 52477  53.2158 107.5126 0001298  90.4468 269.6672 15.08837806 78496,6917.887,95.438,540.65,538.854,0.0
52477.0,STARLINK-3860,PAYLOAD,2023-09-26 19:48:10,15.08837739,0.0001251,53.216,106.3234,95.9903,264.1231,4.7281e-05,4.65e-06,0.0,0 STARLINK-3860,1 52477U 22049AC  23269.82512059  .00000465  00000-0  47281-4 0  9997,2 52477  53.2160 106.3234 0001251  95.9903 264.1231 15.08837739 77450,6917.887,95.438,540.618,538.887,0.0
52477.0,STARLINK-3860,PAYLOAD,2023-09-27 22:49:43,15.08844545,0.0001381,53.216,101.268,109.698,250.4161,6.406e-05,7.32e-06,0.0,0 STARLINK-3860,1 52477U 22049AC  23270.95120085  .00000732  00000-0  64060-4 0  9998,2 52477  53.2160 101.2680 0001381 109.6980 250.4161 15.08844545 77623,6917.866,95.437,540.687,538.776,0.0
52477.0,STARLINK-3860,PAYLOAD,2023-09-28 13:08:12,15.08841325,0.0001387,53.216,98.5911,97.5652,262.5497,0.00019522,2.82e-05,0.0,0 STARLINK-3860,1 52477U 22049AC  23271.54736448  .00002820  00000-0  19522-3 0  9992,2 52477  53.2160  98.5911 0001387  97.5652 262.5497 15.08841325 77714,6917.876,95.437,540.701,538.782,0.0
52477.0,STARLINK-3860,PAYLOAD,2023-09-28 17:54:21,15.08844644,0.0001358,53.2162,97.6991,93.4442,266.6705,0.00023297,3.422e-05,0.0,0 STARLINK-3860,1 52477U 22049AC  23271.74608274  .00003422  00000-0  23297-3 0  9992,2 52477  53.2162  97.6991 0001358  93.4442 266.6705 15.08844644 78821,6917.866,95.437,540.671,538.792,0.0
52477.0,STARLINK-3860,PAYLOAD,2023-09-29 11:23:36,15.0884094,0.0001381,53.2165,94.429,77.9747,282.14,6.8235e-05,7.98e-06,0.0,0 STARLINK-3860,1 52477U 22049AC  23272.47472511  .00000798  00000-0  68235-4 0  9991,2 52477  53.2165  94.4290 0001381  77.9747 282.1400 15.08840940 78934,6917.878,95.437,540.698,538.787,0.0
52477.0,STARLINK-3860,PAYLOAD,2023-09-29 17:45:08,15.08844503,0.0001346,53.2161,93.241,73.6856,286.4284,0.00010054,1.313e-05,0.0,0 STARLINK-3860,1 52477U 22049AC  23272.73968258  .00001313  00000-0  10054-3 0  9997,2 52477  53.2161  93.2410 0001346  73.6856 286.4284 15.08844503 77896,6917.867,95.437,540.663,538.8,0.0
52477.0,STARLINK-3860,PAYLOAD,2023-09-29 22:31:17,15.08850097,0.0001336,53.2161,92.3476,91.0761,269.0384,0.00015799,2.228e-05,0.0,0 STARLINK-3860,1 52477U 22049AC  23272.93839817  .00002228  00000-0  15799-3 0  9994,2 52477  53.2161  92.3476 0001336  91.0761 269.0384 15.08850097 77923,6917.85,95.437,540.639,538.79,0.0
52477.0,STARLINK-3860,PAYLOAD,2023-09-30 17:35:55,15.08838876,0.0001218,53.2156,88.7803,97.4572,262.6559,-2.9225e-05,-7.53e-06,0.0,0 STARLINK-3860,1 52477U 22049AC  23273.73328307 -.00000753  00000-0 -29225-4 0  9993,2 52477  53.2156  88.7803 0001218  97.4572 262.6559 15.08838876 78047,6917.884,95.438,540.591,538.906,0.0
52477.0,STARLINK-3860,PAYLOAD,2023-10-01 11:05:09,15.08846338,0.0001262,53.2166,85.5076,89.4902,270.6235,8.4691e-05,1.06e-05,0.0,0 STARLINK-3860,1 52477U 22049AC  23274.46192045  .00001060  00000-0  84691-4 0  9990,2 52477  53.2166  85.5076 0001262  89.4902 270.6235 15.08846338 79236,6917.861,95.437,540.599,538.853,0.0
52477.0,STARLINK-3860,PAYLOAD,2023-10-01 19:02:05,15.08855147,0.0001258,53.2158,84.0214,84.6741,275.4394,0.00031239,4.689e-05,0.0,0 STARLINK-3860,1 52477U 22049AC  23274.79311562  .00004689  00000-0  31239-3 0  9992,2 52477  53.2158  84.0214 0001258  84.6741 275.4394 15.08855147 78201,6917.834,95.437,540.569,538.829,0.0
52477.0,STARLINK-3860,PAYLOAD,2023-10-02 10:55:57,15.08838955,0.000133,53.2162,81.0471,93.5527,266.5617,8.4288e-05,1.054e-05,0.0,0 STARLINK-3860,1 52477U 22049AC  23275.45552320  .00001054  00000-0  84288-4 0  9991,2 52477  53.2162  81.0471 0001330  93.5527 266.5617 15.08838955 78308,6917.884,95.438,540.669,538.829,0.0
52477.0,STARLINK-3860,PAYLOAD,2023-10-02 18:52:52,15.08841002,0.0001393,53.2162,79.5608,89.6381,270.4771,0.00010944,1.454e-05,0.0,0 STARLINK-3860,1 52477U 22049AC  23275.78672349  .00001454  00000-0  10944-3 0  9992,2 52477  53.2162  79.5608 0001393  89.6381 270.4771 15.08841002 79432,6917.877,95.437,540.706,538.779,0.0
52477.0,STARLINK-3860,PAYLOAD,2023-10-03 10:46:44,15.08837352,0.0001405,53.2161,76.5873,88.3877,271.7276,7.9032e-05,9.7e-06,0.0,0 STARLINK-3860,1 52477U 22049AC  23276.44912726  .00000970  00000-0  79032-4 0  9998,2 52477  53.2161  76.5873 0001405  88.3877 271.7276 15.08837352 79530,6917.888,95.438,540.725,538.782,0.0
52477.0,STARLINK-3860,PAYLOAD,2023-10-03 17:08:17,15.08841125,0.0001423,53.2161,75.3983,86.7453,273.3702,0.00016972,2.414e-05,0.0,0 STARLINK-3860,1 52477U 22049AC  23276.71408672  .00002414  00000-0  16972-3 0  9996,2 52477  53.2161  75.3983 0001423  86.7453 273.3702 15.08841125 78490,6917.877,95.437,540.726,538.758,0.0
52477.0,STARLINK-3860,PAYLOAD,2023-10-04 13:48:17,15.08850417,0.0001506,53.2162,71.5327,85.5564,274.56,0.00039717,6.04e-05,0.0,0 STARLINK-3860,1 52477U 22049AC  23277.57520471  .00006040  00000-0  39717-3 0  9994,2 52477  53.2162  71.5327 0001506  85.5564 274.5600 15.08850417 79702,6917.849,95.437,540.755,538.672,0.0
52477.0,STARLINK-3860,PAYLOAD,2023-10-04 16:59:03,15.08856781,0.0001476,53.2173,70.938,86.9328,273.1833,0.0005204,8.008e-05,0.0,0 STARLINK-3860,1 52477U 22049AC  23277.70768230  .00008008  00000-0  52040-3 0  9996,2 52477  53.2173  70.9380 0001476  86.9328 273.1833 15.08856781 79720,6917.829,95.436,540.715,538.673,0.0
52477.0,STARLINK-3860,PAYLOAD,2023-10-05 10:28:18,15.08846803,0.0001547,53.2169,67.667,84.3615,275.7554,0.00019246,2.777e-05,0.0,0 STARLINK-3860,1 52477U 22049AC  23278.43632532  .00002777  00000-0  19246-3 0  9990,2 52477  53.2169  67.6670 0001547  84.3615 275.7554 15.08846803 78754,6917.86,95.437,540.795,538.654,0.0
52477.0,STARLINK-3860,PAYLOAD,2023-10-05 13:39:04,15.08847132,0.0001434,53.2177,67.0727,97.064,263.0515,0.00018452,2.65e-05,0.0,0 STARLINK-3860,1 52477U 22049AC  23278.56880386  .00002650  00000-0  18452-3 0  9994,2 52477  53.2177  67.0727 0001434  97.0640 263.0515 15.08847132 79859,6917.859,95.437,540.716,538.732,0.0
52477.0,STARLINK-3860,PAYLOAD,2023-10-05 16:49:50,15.08848757,0.0001342,53.2174,66.4787,88.13,271.9846,0.00021449,3.128e-05,0.0,0 STARLINK-3860,1 52477U 22049AC  23278.70128324  .00003128  00000-0  21449-3 0  9998,2 52477  53.2174  66.4787 0001342  88.1300 271.9846 15.08848757 79878,6917.854,95.437,540.647,538.79,0.0
52477.0,STARLINK-3860,PAYLOAD,2023-10-06 10:19:05,15.08837738,0.0001314,53.2183,63.2071,86.5915,273.5227,6.1314e-05,6.88e-06,0.0,0 STARLINK-3860,1 52477U 22049AC  23279.42992722  .00000688  00000-0  61314-4 0  9993,2 52477  53.2183  63.2071 0001314  86.5915 273.5227 15.08837738 78903,6917.887,95.438,540.661,538.843,0.0
